0 SL-19 R/B
1 32957U 08025E   13282.50001101  .00000044  00000-0  13611-3 0  8920
2 32957 082.4987 275.2323 0199775 020.0014 156.6969 12.77707702250914
0 SL-19 R/B
1 32957U 08025E   13287.09269819 -.00000005  00000-0 -65529-4 0  8948
2 32957 082.4991 272.1827 0199568 009.3134 041.8966 12.77708357251502
0 SL-19 R/B
1 32957U 08025E   13289.12763630 -.00000005  00000-0 -65174-4 0  8951
2 32957 082.4995 270.8314 0199480 004.5738 042.1061 12.77708257251769
0 SL-19 R/B
1 32957U 08025E   13291.42491449  .00000018  00000-0  29971-4 0  8961
2 32957 082.5000 269.3059 0199389 359.2241 169.0120 12.77708107252055
0 SL-19 R/B
1 32957U 08025E   13293.45780405  .00000028  00000-0  72422-4 0  8970
2 32957 082.5003 267.9562 0199303 354.4861 159.8000 12.77707877252318
0 SL-19 R/B
1 32957U 08025E   13295.48962748  .00000041  00000-0  12663-3 0  8983
2 32957 082.5004 266.6075 0199224 349.7472 145.6863 12.77707938252577
